{
"type": "FeatureCollection",
"name": "streetscape_hybrid",
"crs": { "type": "name", "properties": { "name": "urn:ogc:def:crs:OGC:1.3:CRS84" } },
"features": [
{ "type": "Feature", "properties": { "location_id": "AMS001", "grid_id": "G113", "pano_id": "recording_2025-06-20_12-01-53_00213", "longitude": 4.9163825912215646, "latitude": 52.35967281813916, "timestamp": "2025-06-20T12:04:27Z", "year": 2025, "month": 6, "heading": 0.0, "image_url": "https://t1.data.amsterdam.nl/panorama/2025/360geo/recording_2025-06-20_12-01-53_00213/equirectangular/panorama_4000.jpg", "image_id": "AMS001_A", "greenery": "high", "pedestrian": "strong", "cycling": "present", "motor_vehicle": "medium", "cycling_evidence": "A clearly marked, designated bike lane is visible on the right side of the road, separated from the main vehicle lane by a dashed white line and bike symbols painted on the pavement.", "filename": "AMS001_A.jpg" }, "geometry": { "type": "Point", "coordinates": [ 4.916382592474696, 52.359672822273346 ] } },
{ "type": "Feature", "properties": { "location_id": "AMS001", "grid_id": "G113", "pano_id": "recording_2025-06-20_12-01-53_00213", "longitude": 4.9163825912215646, "latitude": 52.35967281813916, "timestamp": "2025-06-20T12:04:27Z", "year": 2025, "month": 6, "heading": 0.0, "image_url": "https://t1.data.amsterdam.nl/panorama/2025/360geo/recording_2025-06-20_12-01-53_00213/equirectangular/panorama_4000.jpg", "image_id": "AMS001_B", "greenery": "high", "pedestrian": "strong", "cycling": "present", "motor_vehicle": "medium", "cycling_evidence": "There is a red-colored bike lane visible on the right side of the street, separated from the tram tracks and pedestrian sidewalk, indicating a designated cycling facility.", "filename": "AMS001_B.jpg" }, "geometry": { "type": "Point", "coordinates": [ 4.916382592474696, 52.359672822273346 ] } },
{ "type": "Feature", "properties": { "location_id": "AMS002", "grid_id": "G211", "pano_id": "recording_2025-07-03_04-36-25_00045", "longitude": 4.9001190921180324, "latitude": 52.369450837033781, "timestamp": "2025-07-03T04:37:52Z", "year": 2025, "month": 7, "heading": 0.0, "image_url": "https://t1.data.amsterdam.nl/panorama/2025/360geo/recording_2025-07-03_04-36-25_00045/equirectangular/panorama_4000.jpg", "image_id": "AMS002_A", "greenery": "medium", "pedestrian": "moderate", "cycling": "absent", "motor_vehicle": "medium", "cycling_evidence": "There is a bicycle parked against the building, but no clearly marked or designated cycling lane or track is visible on the street.", "filename": "AMS002_A.jpg" }, "geometry": { "type": "Point", "coordinates": [ 4.900119093355383, 52.369450841173823 ] } },
{ "type": "Feature", "properties": { "location_id": "AMS002", "grid_id": "G211", "pano_id": "recording_2025-07-03_04-36-25_00045", "longitude": 4.9001190921180324, "latitude": 52.369450837033781, "timestamp": "2025-07-03T04:37:52Z", "year": 2025, "month": 7, "heading": 0.0, "image_url": "https://t1.data.amsterdam.nl/panorama/2025/360geo/recording_2025-07-03_04-36-25_00045/equirectangular/panorama_4000.jpg", "image_id": "AMS002_B", "greenery": "medium", "pedestrian": "strong", "cycling": "absent", "motor_vehicle": "medium", "cycling_evidence": "There is no visible designated cycle lane or track on the street or sidewalk; no cycling infrastructure is apparent.", "filename": "AMS002_B.jpg" }, "geometry": { "type": "Point", "coordinates": [ 4.900119093355383, 52.369450841173823 ] } },
{ "type": "Feature", "properties": { "location_id": "AMS003", "grid_id": "G001", "pano_id": "recording_2025-09-29_07-24-00_00374", "longitude": 4.8999107299608884, "latitude": 52.350309705325529, "timestamp": "2025-09-29T07:32:51Z", "year": 2025, "month": 9, "heading": 0.0, "image_url": "https://t1.data.amsterdam.nl/panorama/2025/360geo/recording_2025-09-29_07-24-00_00374/equirectangular/panorama_4000.jpg", "image_id": "AMS003_A", "greenery": "medium", "pedestrian": "strong", "cycling": "absent", "motor_vehicle": "medium", "cycling_evidence": "There is a designated bicycle parking area with many bicycles parked, but no visible dedicated cycle lane or track on the road or sidewalk.", "filename": "AMS003_A.jpg" }, "geometry": { "type": "Point", "coordinates": [ 4.899910731197119, 52.350309709454216 ] } },
{ "type": "Feature", "properties": { "location_id": "AMS003", "grid_id": "G001", "pano_id": "recording_2025-09-29_07-24-00_00374", "longitude": 4.8999107299608884, "latitude": 52.350309705325529, "timestamp": "2025-09-29T07:32:51Z", "year": 2025, "month": 9, "heading": 0.0, "image_url": "https://t1.data.amsterdam.nl/panorama/2025/360geo/recording_2025-09-29_07-24-00_00374/equirectangular/panorama_4000.jpg", "image_id": "AMS003_B", "greenery": "medium", "pedestrian": "strong", "cycling": "absent", "motor_vehicle": "medium", "cycling_evidence": "There is a designated bicycle parking area with multiple bicycles parked, but no visible dedicated cycle lane or track on the street itself.", "filename": "AMS003_B.jpg" }, "geometry": { "type": "Point", "coordinates": [ 4.899910731197119, 52.350309709454216 ] } },
{ "type": "Feature", "properties": { "location_id": "AMS004", "grid_id": "G210", "pano_id": "recording_2025-06-19_08-46-57_01574", "longitude": 4.9319026212536006, "latitude": 52.367477338745196, "timestamp": "2025-06-19T09:31:59Z", "year": 2025, "month": 6, "heading": 0.0, "image_url": "https://t1.data.amsterdam.nl/panorama/2025/360geo/recording_2025-06-19_08-46-57_01574/equirectangular/panorama_4000.jpg", "image_id": "AMS004_A", "greenery": "medium", "pedestrian": "moderate", "cycling": "present", "motor_vehicle": "medium", "cycling_evidence": "There are clearly marked cycle lanes on both sides of the road, separated from the vehicle lanes and sidewalks, continuing through the underpass.", "filename": "AMS004_A.jpg" }, "geometry": { "type": "Point", "coordinates": [ 4.931902622522603, 52.367477342883959 ] } },
{ "type": "Feature", "properties": { "location_id": "AMS004", "grid_id": "G210", "pano_id": "recording_2025-06-19_08-46-57_01574", "longitude": 4.9319026212536006, "latitude": 52.367477338745196, "timestamp": "2025-06-19T09:31:59Z", "year": 2025, "month": 6, "heading": 0.0, "image_url": "https://t1.data.amsterdam.nl/panorama/2025/360geo/recording_2025-06-19_08-46-57_01574/equirectangular/panorama_4000.jpg", "image_id": "AMS004_B", "greenery": "medium", "pedestrian": "moderate", "cycling": "present", "motor_vehicle": "medium", "cycling_evidence": "On the right side of the street, there is a clearly marked red cycle lane separated from the sidewalk and road, indicating designated cycling infrastructure.", "filename": "AMS004_B.jpg" }, "geometry": { "type": "Point", "coordinates": [ 4.931902622522603, 52.367477342883959 ] } },
{ "type": "Feature", "properties": { "location_id": "AMS005", "grid_id": "G045", "pano_id": "recording_2025-09-30_08-33-50_00869", "longitude": 4.9314737324126448, "latitude": 52.353205417348448, "timestamp": "2025-09-30T08:55:28Z", "year": 2025, "month": 9, "heading": 0.0, "image_url": "https://t1.data.amsterdam.nl/panorama/2025/360geo/recording_2025-09-30_08-33-50_00869/equirectangular/panorama_4000.jpg", "image_id": "AMS005_A", "greenery": "medium", "pedestrian": "moderate", "cycling": "present", "motor_vehicle": "medium", "cycling_evidence": "There is a red-colored lane adjacent to the sidewalk that is separated from the road by a curb, which is a typical design for a designated cycle lane in some cities.", "filename": "AMS005_A.jpg" }, "geometry": { "type": "Point", "coordinates": [ 4.931473733680549, 52.353205421478734 ] } },
{ "type": "Feature", "properties": { "location_id": "AMS005", "grid_id": "G045", "pano_id": "recording_2025-09-30_08-33-50_00869", "longitude": 4.9314737324126448, "latitude": 52.353205417348448, "timestamp": "2025-09-30T08:55:28Z", "year": 2025, "month": 9, "heading": 0.0, "image_url": "https://t1.data.amsterdam.nl/panorama/2025/360geo/recording_2025-09-30_08-33-50_00869/equirectangular/panorama_4000.jpg", "image_id": "AMS005_B", "greenery": "high", "pedestrian": "weak", "cycling": "absent", "motor_vehicle": "high", "cycling_evidence": "There is no visible designated cycling lane or track on the road; the road markings do not indicate cycling infrastructure.", "filename": "AMS005_B.jpg" }, "geometry": { "type": "Point", "coordinates": [ 4.931473733680549, 52.353205421478734 ] } },
{ "type": "Feature", "properties": { "location_id": "AMS006", "grid_id": "G009", "pano_id": "recording_2025-09-30_08-33-50_01620", "longitude": 4.9168259941518562, "latitude": 52.349900256445565, "timestamp": "2025-09-30T09:21:38Z", "year": 2025, "month": 9, "heading": 0.0, "image_url": "https://t1.data.amsterdam.nl/panorama/2025/360geo/recording_2025-09-30_08-33-50_01620/equirectangular/panorama_4000.jpg", "image_id": "AMS006_A", "greenery": "medium", "pedestrian": "strong", "cycling": "present", "motor_vehicle": "medium", "cycling_evidence": "There is a clearly marked, wide red cycle lane separated from the motor vehicle lane, with bicycles parked and cyclists present, indicating designated cycling infrastructure.", "filename": "AMS006_A.jpg" }, "geometry": { "type": "Point", "coordinates": [ 4.916825995404969, 52.349900260573946 ] } },
{ "type": "Feature", "properties": { "location_id": "AMS006", "grid_id": "G009", "pano_id": "recording_2025-09-30_08-33-50_01620", "longitude": 4.9168259941518562, "latitude": 52.349900256445565, "timestamp": "2025-09-30T09:21:38Z", "year": 2025, "month": 9, "heading": 0.0, "image_url": "https://t1.data.amsterdam.nl/panorama/2025/360geo/recording_2025-09-30_08-33-50_01620/equirectangular/panorama_4000.jpg", "image_id": "AMS006_B", "greenery": "low", "pedestrian": "moderate", "cycling": "absent", "motor_vehicle": "high", "cycling_evidence": "There is no visible designated cycling lane or track on the road or sidewalk in the image.", "filename": "AMS006_B.jpg" }, "geometry": { "type": "Point", "coordinates": [ 4.916825995404969, 52.349900260573946 ] } },
{ "type": "Feature", "properties": { "location_id": "AMS007", "grid_id": "G106", "pano_id": "recording_2025-06-19_04-38-42_02989", "longitude": 4.9008385484956802, "latitude": 52.359738124421703, "timestamp": "2025-06-19T05:45:26Z", "year": 2025, "month": 6, "heading": 0.0, "image_url": "https://t1.data.amsterdam.nl/panorama/2025/360geo/recording_2025-06-19_04-38-42_02989/equirectangular/panorama_4000.jpg", "image_id": "AMS007_A", "greenery": "medium", "pedestrian": "moderate", "cycling": "present", "motor_vehicle": "medium", "cycling_evidence": "There is a clearly marked, separated cycle lane in the center of the image, distinct from both the pedestrian sidewalk and the motor vehicle lanes.", "filename": "AMS007_A.jpg" }, "geometry": { "type": "Point", "coordinates": [ 4.900838549733288, 52.359738128556018 ] } },
{ "type": "Feature", "properties": { "location_id": "AMS007", "grid_id": "G106", "pano_id": "recording_2025-06-19_04-38-42_02989", "longitude": 4.9008385484956802, "latitude": 52.359738124421703, "timestamp": "2025-06-19T05:45:26Z", "year": 2025, "month": 6, "heading": 0.0, "image_url": "https://t1.data.amsterdam.nl/panorama/2025/360geo/recording_2025-06-19_04-38-42_02989/equirectangular/panorama_4000.jpg", "image_id": "AMS007_B", "greenery": "high", "pedestrian": "moderate", "cycling": "present", "motor_vehicle": "medium", "cycling_evidence": "There is a clearly marked, dedicated cycling lane in the center of the image, separated from the tram tracks and pedestrian sidewalk.", "filename": "AMS007_B.jpg" }, "geometry": { "type": "Point", "coordinates": [ 4.900838549733288, 52.359738128556018 ] } },
{ "type": "Feature", "properties": { "location_id": "AMS008", "grid_id": "G218", "pano_id": "recording_2025-06-19_07-14-50_00002", "longitude": 4.9144933770984691, "latitude": 52.368660272383686, "timestamp": "2025-06-19T07:14:59Z", "year": 2025, "month": 6, "heading": 0.0, "image_url": "https://t1.data.amsterdam.nl/panorama/2025/360geo/recording_2025-06-19_07-14-50_00002/equirectangular/panorama_4000.jpg", "image_id": "AMS008_A", "greenery": "medium", "pedestrian": "strong", "cycling": "absent", "motor_vehicle": "medium", "cycling_evidence": "No designated cycle lane or track is visible on the street; bicycles are not clearly parked in a designated area.", "filename": "AMS008_A.jpg" }, "geometry": { "type": "Point", "coordinates": [ 4.914493378350136, 52.368660276523187 ] } },
{ "type": "Feature", "properties": { "location_id": "AMS008", "grid_id": "G218", "pano_id": "recording_2025-06-19_07-14-50_00002", "longitude": 4.9144933770984691, "latitude": 52.368660272383686, "timestamp": "2025-06-19T07:14:59Z", "year": 2025, "month": 6, "heading": 0.0, "image_url": "https://t1.data.amsterdam.nl/panorama/2025/360geo/recording_2025-06-19_07-14-50_00002/equirectangular/panorama_4000.jpg", "image_id": "AMS008_B", "greenery": "medium", "pedestrian": "moderate", "cycling": "absent", "motor_vehicle": "medium", "cycling_evidence": "There are bicycles parked near the sidewalk, but no clearly marked or designated cycling lane or track is visible on the street or sidewalk.", "filename": "AMS008_B.jpg" }, "geometry": { "type": "Point", "coordinates": [ 4.914493378350136, 52.368660276523187 ] } },
{ "type": "Feature", "properties": { "location_id": "AMS009", "grid_id": "G134", "pano_id": "recording_2025-09-26_10-39-18_00130", "longitude": 4.9278997236731961, "latitude": 52.361186123894974, "timestamp": "2025-09-26T10:44:10Z", "year": 2025, "month": 9, "heading": 0.0, "image_url": "https://t1.data.amsterdam.nl/panorama/2025/360geo/recording_2025-09-26_10-39-18_00130/equirectangular/panorama_4000.jpg", "image_id": "AMS009_A", "greenery": "medium", "pedestrian": "moderate", "cycling": "absent", "motor_vehicle": "medium", "cycling_evidence": "There is no visible designated cycle lane, track, or other cycling facility marked on the street or sidewalks.", "filename": "AMS009_A.jpg" }, "geometry": { "type": "Point", "coordinates": [ 4.927899724937903, 52.361186128030027 ] } },
{ "type": "Feature", "properties": { "location_id": "AMS009", "grid_id": "G134", "pano_id": "recording_2025-09-26_10-39-18_00130", "longitude": 4.9278997236731961, "latitude": 52.361186123894974, "timestamp": "2025-09-26T10:44:10Z", "year": 2025, "month": 9, "heading": 0.0, "image_url": "https://t1.data.amsterdam.nl/panorama/2025/360geo/recording_2025-09-26_10-39-18_00130/equirectangular/panorama_4000.jpg", "image_id": "AMS009_B", "greenery": "medium", "pedestrian": "moderate", "cycling": "absent", "motor_vehicle": "medium", "cycling_evidence": "There is no clearly marked or designated cycling lane or track visible on the street; bicycles are parked on the sidewalk but no cycling infrastructure is evident.", "filename": "AMS009_B.jpg" }, "geometry": { "type": "Point", "coordinates": [ 4.927899724937903, 52.361186128030027 ] } },
{ "type": "Feature", "properties": { "location_id": "AMS010", "grid_id": "G050", "pano_id": "recording_2025-06-20_10-43-25_01175", "longitude": 4.908351860926345, "latitude": 52.354576893874999, "timestamp": "2025-06-20T11:12:36Z", "year": 2025, "month": 6, "heading": 0.0, "image_url": "https://t1.data.amsterdam.nl/panorama/2025/360geo/recording_2025-06-20_10-43-25_01175/equirectangular/panorama_4000.jpg", "image_id": "AMS010_A", "greenery": "high", "pedestrian": "strong", "cycling": "absent", "motor_vehicle": "medium", "cycling_evidence": "There are bicycles parked along the street, but no clearly marked or designated cycle lane or track is visible in the image.", "filename": "AMS010_A.jpg" }, "geometry": { "type": "Point", "coordinates": [ 4.908351862171211, 52.354576898006229 ] } },
{ "type": "Feature", "properties": { "location_id": "AMS010", "grid_id": "G050", "pano_id": "recording_2025-06-20_10-43-25_01175", "longitude": 4.908351860926345, "latitude": 52.354576893874999, "timestamp": "2025-06-20T11:12:36Z", "year": 2025, "month": 6, "heading": 0.0, "image_url": "https://t1.data.amsterdam.nl/panorama/2025/360geo/recording_2025-06-20_10-43-25_01175/equirectangular/panorama_4000.jpg", "image_id": "AMS010_B", "greenery": "medium", "pedestrian": "strong", "cycling": "present", "motor_vehicle": "medium", "cycling_evidence": "A designated cycling path is visible in the foreground, separated from both the pedestrian area and the roadway by a planted median strip.", "filename": "AMS010_B.jpg" }, "geometry": { "type": "Point", "coordinates": [ 4.908351862171211, 52.354576898006229 ] } },
{ "type": "Feature", "properties": { "location_id": "AMS011", "grid_id": "G154", "pano_id": "recording_2025-06-19_06-21-49_00119", "longitude": 4.9074221059894336, "latitude": 52.363836076021173, "timestamp": "2025-06-19T06:24:14Z", "year": 2025, "month": 6, "heading": 0.0, "image_url": "https://t1.data.amsterdam.nl/panorama/2025/360geo/recording_2025-06-19_06-21-49_00119/equirectangular/panorama_4000.jpg", "image_id": "AMS011_A", "greenery": "medium", "pedestrian": "strong", "cycling": "absent", "motor_vehicle": "medium", "cycling_evidence": "There are many bicycles parked along the right side of the sidewalk, but no clearly marked or designated cycle lane or track is visible on the street or sidewalk.", "filename": "AMS011_A.jpg" }, "geometry": { "type": "Point", "coordinates": [ 4.90742210723381, 52.363836080157853 ] } },
{ "type": "Feature", "properties": { "location_id": "AMS011", "grid_id": "G154", "pano_id": "recording_2025-06-19_06-21-49_00119", "longitude": 4.9074221059894336, "latitude": 52.363836076021173, "timestamp": "2025-06-19T06:24:14Z", "year": 2025, "month": 6, "heading": 0.0, "image_url": "https://t1.data.amsterdam.nl/panorama/2025/360geo/recording_2025-06-19_06-21-49_00119/equirectangular/panorama_4000.jpg", "image_id": "AMS011_B", "greenery": "medium", "pedestrian": "strong", "cycling": "absent", "motor_vehicle": "medium", "cycling_evidence": "There is a row of parked bicycles on the left side of the street, but no clearly marked or designated cycle lane or track is visible on the roadway or sidewalk.", "filename": "AMS011_B.jpg" }, "geometry": { "type": "Point", "coordinates": [ 4.90742210723381, 52.363836080157853 ] } },
{ "type": "Feature", "properties": { "location_id": "AMS012", "grid_id": "G191", "pano_id": "recording_2025-06-19_09-55-15_00461", "longitude": 4.9224188602971637, "latitude": 52.365605667852066, "timestamp": "2025-06-19T10:09:10Z", "year": 2025, "month": 6, "heading": 0.0, "image_url": "https://t1.data.amsterdam.nl/panorama/2025/360geo/recording_2025-06-19_09-55-15_00461/equirectangular/panorama_4000.jpg", "image_id": "AMS012_A", "greenery": "high", "pedestrian": "strong", "cycling": "absent", "motor_vehicle": "medium", "cycling_evidence": "No visible designated cycling lane or track is present on the street or sidewalk area.", "filename": "AMS012_A.jpg" }, "geometry": { "type": "Point", "coordinates": [ 4.922418861556603, 52.365605671989755 ] } },
{ "type": "Feature", "properties": { "location_id": "AMS012", "grid_id": "G191", "pano_id": "recording_2025-06-19_09-55-15_00461", "longitude": 4.9224188602971637, "latitude": 52.365605667852066, "timestamp": "2025-06-19T10:09:10Z", "year": 2025, "month": 6, "heading": 0.0, "image_url": "https://t1.data.amsterdam.nl/panorama/2025/360geo/recording_2025-06-19_09-55-15_00461/equirectangular/panorama_4000.jpg", "image_id": "AMS012_B", "greenery": "medium", "pedestrian": "strong", "cycling": "present", "motor_vehicle": "medium", "cycling_evidence": "There is a marked cycle lane on the right side of the image, separated from the tram tracks and road by a solid white line, indicating a designated cycling facility.", "filename": "AMS012_B.jpg" }, "geometry": { "type": "Point", "coordinates": [ 4.922418861556603, 52.365605671989755 ] } },
{ "type": "Feature", "properties": { "location_id": "AMS013", "grid_id": "G072", "pano_id": "recording_2025-06-20_09-22-37_01512", "longitude": 4.9233820837193214, "latitude": 52.355678345740394, "timestamp": "2025-06-20T09:50:13Z", "year": 2025, "month": 6, "heading": 0.0, "image_url": "https://t1.data.amsterdam.nl/panorama/2025/360geo/recording_2025-06-20_09-22-37_01512/equirectangular/panorama_4000.jpg", "image_id": "AMS013_A", "greenery": "high", "pedestrian": "moderate", "cycling": "absent", "motor_vehicle": "medium", "cycling_evidence": "There are several bicycles parked on the sidewalk, but no clearly marked or designated cycling lane or track is visible on the street itself.", "filename": "AMS013_A.jpg" }, "geometry": { "type": "Point", "coordinates": [ 4.923382084979257, 52.355678349872221 ] } },
{ "type": "Feature", "properties": { "location_id": "AMS013", "grid_id": "G072", "pano_id": "recording_2025-06-20_09-22-37_01512", "longitude": 4.9233820837193214, "latitude": 52.355678345740394, "timestamp": "2025-06-20T09:50:13Z", "year": 2025, "month": 6, "heading": 0.0, "image_url": "https://t1.data.amsterdam.nl/panorama/2025/360geo/recording_2025-06-20_09-22-37_01512/equirectangular/panorama_4000.jpg", "image_id": "AMS013_B", "greenery": "medium", "pedestrian": "strong", "cycling": "absent", "motor_vehicle": "medium", "cycling_evidence": "There are several bicycles parked on the right side of the image, but no clearly marked or designated cycle lane or track is visible on the street or sidewalk.", "filename": "AMS013_B.jpg" }, "geometry": { "type": "Point", "coordinates": [ 4.923382084979257, 52.355678349872221 ] } },
{ "type": "Feature", "properties": { "location_id": "AMS014", "grid_id": "G012", "pano_id": "recording_2025-09-30_10-15-25_00551", "longitude": 4.9251553995296407, "latitude": 52.350110418785199, "timestamp": "2025-09-30T10:24:44Z", "year": 2025, "month": 9, "heading": 0.0, "image_url": "https://t1.data.amsterdam.nl/panorama/2025/360geo/recording_2025-09-30_10-15-25_00551/equirectangular/panorama_4000.jpg", "image_id": "AMS014_A", "greenery": "medium", "pedestrian": "strong", "cycling": "present", "motor_vehicle": "medium", "cycling_evidence": "There is a designated cycling lane marked by a blue circular sign with a bicycle symbol on the left side of the image, and a cyclist is using the crosswalk.", "filename": "AMS014_A.jpg" }, "geometry": { "type": "Point", "coordinates": [ 4.925155400791084, 52.350110422913701 ] } },
{ "type": "Feature", "properties": { "location_id": "AMS014", "grid_id": "G012", "pano_id": "recording_2025-09-30_10-15-25_00551", "longitude": 4.9251553995296407, "latitude": 52.350110418785199, "timestamp": "2025-09-30T10:24:44Z", "year": 2025, "month": 9, "heading": 0.0, "image_url": "https://t1.data.amsterdam.nl/panorama/2025/360geo/recording_2025-09-30_10-15-25_00551/equirectangular/panorama_4000.jpg", "image_id": "AMS014_B", "greenery": "high", "pedestrian": "strong", "cycling": "present", "motor_vehicle": "medium", "cycling_evidence": "A clearly marked, dedicated cycle lane is visible running parallel to the pedestrian crosswalk, separated from the motor vehicle lanes by painted lines and bollards.", "filename": "AMS014_B.jpg" }, "geometry": { "type": "Point", "coordinates": [ 4.925155400791084, 52.350110422913701 ] } },
{ "type": "Feature", "properties": { "location_id": "AMS015", "grid_id": "G005", "pano_id": "recording_2025-07-14_08-27-06_02902", "longitude": 4.9088271244028663, "latitude": 52.349454699956105, "timestamp": "2025-07-14T09:37:29Z", "year": 2025, "month": 7, "heading": 0.0, "image_url": "https://t1.data.amsterdam.nl/panorama/2025/360geo/recording_2025-07-14_08-27-06_02902/equirectangular/panorama_4000.jpg", "image_id": "AMS015_A", "greenery": "high", "pedestrian": "moderate", "cycling": "absent", "motor_vehicle": "low", "cycling_evidence": "There are several bicycles parked on the sidewalk, but no visible designated cycle lane or track on the street or sidewalk.", "filename": "AMS015_A.jpg" }, "geometry": { "type": "Point", "coordinates": [ 4.908827125647965, 52.349454704084259 ] } },
{ "type": "Feature", "properties": { "location_id": "AMS015", "grid_id": "G005", "pano_id": "recording_2025-07-14_08-27-06_02902", "longitude": 4.9088271244028663, "latitude": 52.349454699956105, "timestamp": "2025-07-14T09:37:29Z", "year": 2025, "month": 7, "heading": 0.0, "image_url": "https://t1.data.amsterdam.nl/panorama/2025/360geo/recording_2025-07-14_08-27-06_02902/equirectangular/panorama_4000.jpg", "image_id": "AMS015_B", "greenery": "medium", "pedestrian": "moderate", "cycling": "absent", "motor_vehicle": "medium", "cycling_evidence": "There are many bicycles parked on both sides of the street, but no clearly marked or designated cycle lanes or tracks are visible on the road.", "filename": "AMS015_B.jpg" }, "geometry": { "type": "Point", "coordinates": [ 4.908827125647965, 52.349454704084259 ] } },
{ "type": "Feature", "properties": { "location_id": "AMS016", "grid_id": "G053", "pano_id": "recording_2025-06-20_09-59-55_00304", "longitude": 4.9163252664790758, "latitude": 52.354324328308245, "timestamp": "2025-06-20T10:05:49Z", "year": 2025, "month": 6, "heading": 0.0, "image_url": "https://t1.data.amsterdam.nl/panorama/2025/360geo/recording_2025-06-20_09-59-55_00304/equirectangular/panorama_4000.jpg", "image_id": "AMS016_A", "greenery": "high", "pedestrian": "weak", "cycling": "absent", "motor_vehicle": "medium", "cycling_evidence": "There is no visible designated cycle lane, track, or other cycling facility on the street or sidewalk.", "filename": "AMS016_A.jpg" }, "geometry": { "type": "Point", "coordinates": [ 4.916325267731896, 52.354324332439269 ] } },
{ "type": "Feature", "properties": { "location_id": "AMS016", "grid_id": "G053", "pano_id": "recording_2025-06-20_09-59-55_00304", "longitude": 4.9163252664790758, "latitude": 52.354324328308245, "timestamp": "2025-06-20T10:05:49Z", "year": 2025, "month": 6, "heading": 0.0, "image_url": "https://t1.data.amsterdam.nl/panorama/2025/360geo/recording_2025-06-20_09-59-55_00304/equirectangular/panorama_4000.jpg", "image_id": "AMS016_B", "greenery": "medium", "pedestrian": "strong", "cycling": "absent", "motor_vehicle": "medium", "cycling_evidence": "There are bicycles parked along the sidewalk, but no clearly marked or designated cycling lane or track is visible on the street or sidewalk.", "filename": "AMS016_B.jpg" }, "geometry": { "type": "Point", "coordinates": [ 4.916325267731896, 52.354324332439269 ] } },
{ "type": "Feature", "properties": { "location_id": "AMS017", "grid_id": "G172", "pano_id": "recording_2025-06-19_04-38-42_01648", "longitude": 4.9140218031172482, "latitude": 52.364469595608156, "timestamp": "2025-06-19T05:13:12Z", "year": 2025, "month": 6, "heading": 0.0, "image_url": "https://t1.data.amsterdam.nl/panorama/2025/360geo/recording_2025-06-19_04-38-42_01648/equirectangular/panorama_4000.jpg", "image_id": "AMS017_A", "greenery": "low", "pedestrian": "strong", "cycling": "absent", "motor_vehicle": "medium", "cycling_evidence": "There is no visible designated cycling lane or track on the street. Bicycles are parked on the sidewalk but no cycling infrastructure is marked or separated.", "filename": "AMS017_A.jpg" }, "geometry": { "type": "Point", "coordinates": [ 4.914021804368249, 52.364469599745213 ] } },
{ "type": "Feature", "properties": { "location_id": "AMS017", "grid_id": "G172", "pano_id": "recording_2025-06-19_04-38-42_01648", "longitude": 4.9140218031172482, "latitude": 52.364469595608156, "timestamp": "2025-06-19T05:13:12Z", "year": 2025, "month": 6, "heading": 0.0, "image_url": "https://t1.data.amsterdam.nl/panorama/2025/360geo/recording_2025-06-19_04-38-42_01648/equirectangular/panorama_4000.jpg", "image_id": "AMS017_B", "greenery": "medium", "pedestrian": "strong", "cycling": "absent", "motor_vehicle": "medium", "cycling_evidence": "There is no clearly marked or designated cycle lane or track visible on the street. Although there are many parked bicycles on the right side, no dedicated cycling infrastructure is evident.", "filename": "AMS017_B.jpg" }, "geometry": { "type": "Point", "coordinates": [ 4.914021804368249, 52.364469599745213 ] } },
{ "type": "Feature", "properties": { "location_id": "AMS018", "grid_id": "G109", "pano_id": "recording_2025-09-30_11-08-39_00530", "longitude": 4.907449123745355, "latitude": 52.359668660545644, "timestamp": "2025-09-30T11:16:50Z", "year": 2025, "month": 9, "heading": 0.0, "image_url": "https://t1.data.amsterdam.nl/panorama/2025/360geo/recording_2025-09-30_11-08-39_00530/equirectangular/panorama_4000.jpg", "image_id": "AMS018_A", "greenery": "low", "pedestrian": "weak", "cycling": "absent", "motor_vehicle": "high", "cycling_evidence": "There is no visible designated cycling lane, track, or other cycling infrastructure in the image. The road markings do not indicate any cycling facilities.", "filename": "AMS018_A.jpg" }, "geometry": { "type": "Point", "coordinates": [ 4.907449124989562, 52.359668664679845 ] } },
{ "type": "Feature", "properties": { "location_id": "AMS018", "grid_id": "G109", "pano_id": "recording_2025-09-30_11-08-39_00530", "longitude": 4.907449123745355, "latitude": 52.359668660545644, "timestamp": "2025-09-30T11:16:50Z", "year": 2025, "month": 9, "heading": 0.0, "image_url": "https://t1.data.amsterdam.nl/panorama/2025/360geo/recording_2025-09-30_11-08-39_00530/equirectangular/panorama_4000.jpg", "image_id": "AMS018_B", "greenery": "medium", "pedestrian": "weak", "cycling": "absent", "motor_vehicle": "high", "cycling_evidence": "No designated cycle lanes or tracks are visible on either side of the road or in the median area.", "filename": "AMS018_B.jpg" }, "geometry": { "type": "Point", "coordinates": [ 4.907449124989562, 52.359668664679845 ] } },
{ "type": "Feature", "properties": { "location_id": "AMS019", "grid_id": "G166", "pano_id": "recording_2025-06-19_03-28-47_02122", "longitude": 4.9001738182917451, "latitude": 52.365411623920302, "timestamp": "2025-06-19T03:51:16Z", "year": 2025, "month": 6, "heading": 0.0, "image_url": "https://t1.data.amsterdam.nl/panorama/2025/360geo/recording_2025-06-19_03-28-47_02122/equirectangular/panorama_4000.jpg", "image_id": "AMS019_A", "greenery": "medium", "pedestrian": "strong", "cycling": "absent", "motor_vehicle": "medium", "cycling_evidence": "There is no visible designated cycle lane or track on the street; the road appears to be shared with parked cars and vehicles.", "filename": "AMS019_A.jpg" }, "geometry": { "type": "Point", "coordinates": [ 4.900173819528959, 52.365411628057913 ] } },
{ "type": "Feature", "properties": { "location_id": "AMS019", "grid_id": "G166", "pano_id": "recording_2025-06-19_03-28-47_02122", "longitude": 4.9001738182917451, "latitude": 52.365411623920302, "timestamp": "2025-06-19T03:51:16Z", "year": 2025, "month": 6, "heading": 0.0, "image_url": "https://t1.data.amsterdam.nl/panorama/2025/360geo/recording_2025-06-19_03-28-47_02122/equirectangular/panorama_4000.jpg", "image_id": "AMS019_B", "greenery": "medium", "pedestrian": "strong", "cycling": "absent", "motor_vehicle": "medium", "cycling_evidence": "There are bicycles parked along the sidewalk, but no clearly marked or designated cycling lane or track is visible on the street itself.", "filename": "AMS019_B.jpg" }, "geometry": { "type": "Point", "coordinates": [ 4.900173819528959, 52.365411628057913 ] } },
{ "type": "Feature", "properties": { "location_id": "AMS020", "grid_id": "G214", "pano_id": "recording_2025-06-19_06-21-49_00971", "longitude": 4.9067154844114302, "latitude": 52.369477115800279, "timestamp": "2025-06-19T06:45:49Z", "year": 2025, "month": 6, "heading": 0.0, "image_url": "https://t1.data.amsterdam.nl/panorama/2025/360geo/recording_2025-06-19_06-21-49_00971/equirectangular/panorama_4000.jpg", "image_id": "AMS020_A", "greenery": "medium", "pedestrian": "strong", "cycling": "absent", "motor_vehicle": "medium", "cycling_evidence": "There are no visible designated cycle lanes or tracks on the road; the road markings do not indicate a cycling facility.", "filename": "AMS020_A.jpg" }, "geometry": { "type": "Point", "coordinates": [ 4.90671548565537, 52.369477119940314 ] } },
{ "type": "Feature", "properties": { "location_id": "AMS020", "grid_id": "G214", "pano_id": "recording_2025-06-19_06-21-49_00971", "longitude": 4.9067154844114302, "latitude": 52.369477115800279, "timestamp": "2025-06-19T06:45:49Z", "year": 2025, "month": 6, "heading": 0.0, "image_url": "https://t1.data.amsterdam.nl/panorama/2025/360geo/recording_2025-06-19_06-21-49_00971/equirectangular/panorama_4000.jpg", "image_id": "AMS020_B", "greenery": "medium", "pedestrian": "moderate", "cycling": "absent", "motor_vehicle": "medium", "cycling_evidence": "There are no visible designated cycle lanes or tracks marked on the road surface or separated from traffic.", "filename": "AMS020_B.jpg" }, "geometry": { "type": "Point", "coordinates": [ 4.90671548565537, 52.369477119940314 ] } },
{ "type": "Feature", "properties": { "location_id": "AMS021", "grid_id": "G046", "pano_id": "recording_2025-09-29_07-24-00_01388", "longitude": 4.8991590907363616, "latitude": 52.354240633097142, "timestamp": "2025-09-29T07:57:20Z", "year": 2025, "month": 9, "heading": 0.0, "image_url": "https://t1.data.amsterdam.nl/panorama/2025/360geo/recording_2025-09-29_07-24-00_01388/equirectangular/panorama_4000.jpg", "image_id": "AMS021_A", "greenery": "high", "pedestrian": "strong", "cycling": "present", "motor_vehicle": "medium", "cycling_evidence": "There is a clearly marked, separated cycle lane on the left side of the street, distinguished by a red surface and physical separation from the motor vehicle lane.", "filename": "AMS021_A.jpg" }, "geometry": { "type": "Point", "coordinates": [ 4.899159091972029, 52.354240637228209 ] } },
{ "type": "Feature", "properties": { "location_id": "AMS021", "grid_id": "G046", "pano_id": "recording_2025-09-29_07-24-00_01388", "longitude": 4.8991590907363616, "latitude": 52.354240633097142, "timestamp": "2025-09-29T07:57:20Z", "year": 2025, "month": 9, "heading": 0.0, "image_url": "https://t1.data.amsterdam.nl/panorama/2025/360geo/recording_2025-09-29_07-24-00_01388/equirectangular/panorama_4000.jpg", "image_id": "AMS021_B", "greenery": "high", "pedestrian": "strong", "cycling": "present", "motor_vehicle": "medium", "cycling_evidence": "There is a designated cycle lane on the right side of the street, marked by a solid white line and a bicycle symbol on a blue signpost.", "filename": "AMS021_B.jpg" }, "geometry": { "type": "Point", "coordinates": [ 4.899159091972029, 52.354240637228209 ] } },
{ "type": "Feature", "properties": { "location_id": "AMS022", "grid_id": "G222", "pano_id": "recording_2025-06-19_08-46-57_01377", "longitude": 4.9241278376531259, "latitude": 52.369220881259906, "timestamp": "2025-06-19T09:26:56Z", "year": 2025, "month": 6, "heading": 0.0, "image_url": "https://t1.data.amsterdam.nl/panorama/2025/360geo/recording_2025-06-19_08-46-57_01377/equirectangular/panorama_4000.jpg", "image_id": "AMS022_A", "greenery": "high", "pedestrian": "strong", "cycling": "absent", "motor_vehicle": "medium", "cycling_evidence": "There are several bicycles parked near the trees, but no clearly marked or designated cycle lane or track is visible on the street or sidewalk.", "filename": "AMS022_A.jpg" }, "geometry": { "type": "Point", "coordinates": [ 4.924127838914445, 52.369220885399699 ] } },
{ "type": "Feature", "properties": { "location_id": "AMS022", "grid_id": "G222", "pano_id": "recording_2025-06-19_08-46-57_01377", "longitude": 4.9241278376531259, "latitude": 52.369220881259906, "timestamp": "2025-06-19T09:26:56Z", "year": 2025, "month": 6, "heading": 0.0, "image_url": "https://t1.data.amsterdam.nl/panorama/2025/360geo/recording_2025-06-19_08-46-57_01377/equirectangular/panorama_4000.jpg", "image_id": "AMS022_B", "greenery": "medium", "pedestrian": "moderate", "cycling": "absent", "motor_vehicle": "medium", "cycling_evidence": "There is a cluster of parked bicycles near the corner, but no clearly marked or designated cycle lane or track is visible on the street or sidewalk.", "filename": "AMS022_B.jpg" }, "geometry": { "type": "Point", "coordinates": [ 4.924127838914445, 52.369220885399699 ] } },
{ "type": "Feature", "properties": { "location_id": "AMS023", "grid_id": "G090", "pano_id": "recording_2025-09-30_08-33-50_01202", "longitude": 4.9303535089192057, "latitude": 52.356797553181622, "timestamp": "2025-09-30T09:09:54Z", "year": 2025, "month": 9, "heading": 0.0, "image_url": "https://t1.data.amsterdam.nl/panorama/2025/360geo/recording_2025-09-30_08-33-50_01202/equirectangular/panorama_4000.jpg", "image_id": "AMS023_A", "greenery": "medium", "pedestrian": "strong", "cycling": "absent", "motor_vehicle": "low", "cycling_evidence": "There are multiple bicycles parked in designated racks near the building, but no visible marked cycle lanes or tracks on the pavement itself.", "filename": "AMS023_A.jpg" }, "geometry": { "type": "Point", "coordinates": [ 4.93035351018616, 52.356797557314067 ] } },
{ "type": "Feature", "properties": { "location_id": "AMS023", "grid_id": "G090", "pano_id": "recording_2025-09-30_08-33-50_01202", "longitude": 4.9303535089192057, "latitude": 52.356797553181622, "timestamp": "2025-09-30T09:09:54Z", "year": 2025, "month": 9, "heading": 0.0, "image_url": "https://t1.data.amsterdam.nl/panorama/2025/360geo/recording_2025-09-30_08-33-50_01202/equirectangular/panorama_4000.jpg", "image_id": "AMS023_B", "greenery": "low", "pedestrian": "strong", "cycling": "absent", "motor_vehicle": "low", "cycling_evidence": "There are no visible designated cycle lanes, tracks, or markings indicating cycling infrastructure on the street surface.", "filename": "AMS023_B.jpg" }, "geometry": { "type": "Point", "coordinates": [ 4.93035351018616, 52.356797557314067 ] } },
{ "type": "Feature", "properties": { "location_id": "AMS024", "grid_id": "G131", "pano_id": "recording_2025-06-20_10-43-25_02588", "longitude": 4.9219676709568301, "latitude": 52.361189034231607, "timestamp": "2025-06-20T11:45:08Z", "year": 2025, "month": 6, "heading": 0.0, "image_url": "https://t1.data.amsterdam.nl/panorama/2025/360geo/recording_2025-06-20_10-43-25_02588/equirectangular/panorama_4000.jpg", "image_id": "AMS024_A", "greenery": "high", "pedestrian": "strong", "cycling": "absent", "motor_vehicle": "low", "cycling_evidence": "No designated cycle lanes, tracks, or cycling facilities are visible in the image.", "filename": "AMS024_A.jpg" }, "geometry": { "type": "Point", "coordinates": [ 4.921967672215615, 52.36118903836666 ] } },
{ "type": "Feature", "properties": { "location_id": "AMS024", "grid_id": "G131", "pano_id": "recording_2025-06-20_10-43-25_02588", "longitude": 4.9219676709568301, "latitude": 52.361189034231607, "timestamp": "2025-06-20T11:45:08Z", "year": 2025, "month": 6, "heading": 0.0, "image_url": "https://t1.data.amsterdam.nl/panorama/2025/360geo/recording_2025-06-20_10-43-25_02588/equirectangular/panorama_4000.jpg", "image_id": "AMS024_B", "greenery": "high", "pedestrian": "strong", "cycling": "absent", "motor_vehicle": "low", "cycling_evidence": "No visible designated cycle lanes, tracks, or cycling-specific infrastructure can be identified in the image.", "filename": "AMS024_B.jpg" }, "geometry": { "type": "Point", "coordinates": [ 4.921967672215615, 52.36118903836666 ] } },
{ "type": "Feature", "properties": { "location_id": "AMS025", "grid_id": "G179", "pano_id": "recording_2025-09-26_12-26-58_00955", "longitude": 4.9280176725256393, "latitude": 52.365279789445843, "timestamp": "2025-09-26T12:51:46Z", "year": 2025, "month": 9, "heading": 0.0, "image_url": "https://t1.data.amsterdam.nl/panorama/2025/360geo/recording_2025-09-26_12-26-58_00955/equirectangular/panorama_4000.jpg", "image_id": "AMS025_A", "greenery": "medium", "pedestrian": "strong", "cycling": "present", "motor_vehicle": "medium", "cycling_evidence": "There is a distinct red-colored cycle lane running parallel to the road on the right side, separated from the motor vehicle lane by a white line.", "filename": "AMS025_A.jpg" }, "geometry": { "type": "Point", "coordinates": [ 4.928017673790658, 52.365279793583341 ] } },
{ "type": "Feature", "properties": { "location_id": "AMS025", "grid_id": "G179", "pano_id": "recording_2025-09-26_12-26-58_00955", "longitude": 4.9280176725256393, "latitude": 52.365279789445843, "timestamp": "2025-09-26T12:51:46Z", "year": 2025, "month": 9, "heading": 0.0, "image_url": "https://t1.data.amsterdam.nl/panorama/2025/360geo/recording_2025-09-26_12-26-58_00955/equirectangular/panorama_4000.jpg", "image_id": "AMS025_B", "greenery": "medium", "pedestrian": "strong", "cycling": "present", "motor_vehicle": "medium", "cycling_evidence": "There is a clearly marked red cycle lane on the left side of the street, separated from the main vehicle lanes by a curb and a small traffic island.", "filename": "AMS025_B.jpg" }, "geometry": { "type": "Point", "coordinates": [ 4.928017673790658, 52.365279793583341 ] } },
{ "type": "Feature", "properties": { "location_id": "AMS026", "grid_id": "G033", "pano_id": "recording_2025-07-14_08-27-06_01242", "longitude": 4.9045874394692586, "latitude": 52.352393278465264, "timestamp": "2025-07-14T09:01:30Z", "year": 2025, "month": 7, "heading": 0.0, "image_url": "https://t1.data.amsterdam.nl/panorama/2025/360geo/recording_2025-07-14_08-27-06_01242/equirectangular/panorama_4000.jpg", "image_id": "AMS026_A", "greenery": "medium", "pedestrian": "strong", "cycling": "absent", "motor_vehicle": "medium", "cycling_evidence": "There are many bicycles parked along the sidewalk, but no clearly marked or designated cycle lane or track is visible on the street or sidewalk.", "filename": "AMS026_A.jpg" }, "geometry": { "type": "Point", "coordinates": [ 4.90458744071026, 52.352393282595166 ] } },
{ "type": "Feature", "properties": { "location_id": "AMS026", "grid_id": "G033", "pano_id": "recording_2025-07-14_08-27-06_01242", "longitude": 4.9045874394692586, "latitude": 52.352393278465264, "timestamp": "2025-07-14T09:01:30Z", "year": 2025, "month": 7, "heading": 0.0, "image_url": "https://t1.data.amsterdam.nl/panorama/2025/360geo/recording_2025-07-14_08-27-06_01242/equirectangular/panorama_4000.jpg", "image_id": "AMS026_B", "greenery": "medium", "pedestrian": "moderate", "cycling": "absent", "motor_vehicle": "medium", "cycling_evidence": "There is no clearly marked or designated cycling lane or track visible on the street. Bicycles are parked on the right side, but no cycling infrastructure is evident.", "filename": "AMS026_B.jpg" }, "geometry": { "type": "Point", "coordinates": [ 4.90458744071026, 52.352393282595166 ] } },
{ "type": "Feature", "properties": { "location_id": "AMS027", "grid_id": "G077", "pano_id": "recording_2025-07-14_08-27-06_00202", "longitude": 4.9030519011332512, "latitude": 52.356922273033327, "timestamp": "2025-07-14T08:34:17Z", "year": 2025, "month": 7, "heading": 0.0, "image_url": "https://t1.data.amsterdam.nl/panorama/2025/360geo/recording_2025-07-14_08-27-06_00202/equirectangular/panorama_4000.jpg", "image_id": "AMS027_A", "greenery": "medium", "pedestrian": "moderate", "cycling": "absent", "motor_vehicle": "high", "cycling_evidence": "There is no clearly marked or designated cycling lane or track visible on the street; bicycles are parked on the sidewalk but no dedicated cycling infrastructure is evident.", "filename": "AMS027_A.jpg" }, "geometry": { "type": "Point", "coordinates": [ 4.903051902372934, 52.356922277165921 ] } },
{ "type": "Feature", "properties": { "location_id": "AMS027", "grid_id": "G077", "pano_id": "recording_2025-07-14_08-27-06_00202", "longitude": 4.9030519011332512, "latitude": 52.356922273033327, "timestamp": "2025-07-14T08:34:17Z", "year": 2025, "month": 7, "heading": 0.0, "image_url": "https://t1.data.amsterdam.nl/panorama/2025/360geo/recording_2025-07-14_08-27-06_00202/equirectangular/panorama_4000.jpg", "image_id": "AMS027_B", "greenery": "medium", "pedestrian": "moderate", "cycling": "absent", "motor_vehicle": "medium", "cycling_evidence": "There is a large number of bicycles parked along the sidewalk, but no clearly marked or separated cycle lane is visible on the street.", "filename": "AMS027_B.jpg" }, "geometry": { "type": "Point", "coordinates": [ 4.903051902372934, 52.356922277165921 ] } },
{ "type": "Feature", "properties": { "location_id": "AMS028", "grid_id": "G102", "pano_id": "recording_2025-06-20_09-22-37_00507", "longitude": 4.9246633542312299, "latitude": 52.358625776394732, "timestamp": "2025-06-20T09:30:17Z", "year": 2025, "month": 6, "heading": 0.0, "image_url": "https://t1.data.amsterdam.nl/panorama/2025/360geo/recording_2025-06-20_09-22-37_00507/equirectangular/panorama_4000.jpg", "image_id": "AMS028_A", "greenery": "medium", "pedestrian": "moderate", "cycling": "absent", "motor_vehicle": "medium", "cycling_evidence": "No clearly identifiable designated cycle lane or track is visible on the street or sidewalk areas.", "filename": "AMS028_A.jpg" }, "geometry": { "type": "Point", "coordinates": [ 4.924663355492584, 52.358625780528264 ] } },
{ "type": "Feature", "properties": { "location_id": "AMS028", "grid_id": "G102", "pano_id": "recording_2025-06-20_09-22-37_00507", "longitude": 4.9246633542312299, "latitude": 52.358625776394732, "timestamp": "2025-06-20T09:30:17Z", "year": 2025, "month": 6, "heading": 0.0, "image_url": "https://t1.data.amsterdam.nl/panorama/2025/360geo/recording_2025-06-20_09-22-37_00507/equirectangular/panorama_4000.jpg", "image_id": "AMS028_B", "greenery": "medium", "pedestrian": "moderate", "cycling": "present", "motor_vehicle": "medium", "cycling_evidence": "There is a marked cycle lane on the left side of the street, indicated by white painted lines and bicycle symbols on the pavement.", "filename": "AMS028_B.jpg" }, "geometry": { "type": "Point", "coordinates": [ 4.924663355492584, 52.358625780528264 ] } },
{ "type": "Feature", "properties": { "location_id": "AMS029", "grid_id": "G141", "pano_id": "recording_2025-06-19_10-17-35_00229", "longitude": 4.9114429990994362, "latitude": 52.361885197058115, "timestamp": "2025-06-19T10:28:15Z", "year": 2025, "month": 6, "heading": 0.0, "image_url": "https://t1.data.amsterdam.nl/panorama/2025/360geo/recording_2025-06-19_10-17-35_00229/equirectangular/panorama_4000.jpg", "image_id": "AMS029_A", "greenery": "medium", "pedestrian": "strong", "cycling": "present", "motor_vehicle": "medium", "cycling_evidence": "There are red-colored lanes on both sides of the street adjacent to the sidewalks, which are typical designated cycle lanes in many cities.", "filename": "AMS029_A.jpg" }, "geometry": { "type": "Point", "coordinates": [ 4.911443000347738, 52.361885201193623 ] } },
{ "type": "Feature", "properties": { "location_id": "AMS029", "grid_id": "G141", "pano_id": "recording_2025-06-19_10-17-35_00229", "longitude": 4.9114429990994362, "latitude": 52.361885197058115, "timestamp": "2025-06-19T10:28:15Z", "year": 2025, "month": 6, "heading": 0.0, "image_url": "https://t1.data.amsterdam.nl/panorama/2025/360geo/recording_2025-06-19_10-17-35_00229/equirectangular/panorama_4000.jpg", "image_id": "AMS029_B", "greenery": "medium", "pedestrian": "strong", "cycling": "present", "motor_vehicle": "medium", "cycling_evidence": "There are clearly marked red cycle lanes on both sides of the street, separated from the main vehicle lanes by white dashed lines.", "filename": "AMS029_B.jpg" }, "geometry": { "type": "Point", "coordinates": [ 4.911443000347738, 52.361885201193623 ] } },
{ "type": "Feature", "properties": { "location_id": "AMS030", "grid_id": "G183", "pano_id": "recording_2025-06-19_06-21-49_00362", "longitude": 4.9046327550058484, "latitude": 52.366651627417234, "timestamp": "2025-06-19T06:29:37Z", "year": 2025, "month": 6, "heading": 0.0, "image_url": "https://t1.data.amsterdam.nl/panorama/2025/360geo/recording_2025-06-19_06-21-49_00362/equirectangular/panorama_4000.jpg", "image_id": "AMS030_A", "greenery": "high", "pedestrian": "strong", "cycling": "present", "motor_vehicle": "medium", "cycling_evidence": "There is a red-colored bike lane visible on the left side of the street, separated from the vehicle lanes by a curb, indicating a designated cycling facility.", "filename": "AMS030_A.jpg" }, "geometry": { "type": "Point", "coordinates": [ 4.904632756247575, 52.366651631555541 ] } },
{ "type": "Feature", "properties": { "location_id": "AMS030", "grid_id": "G183", "pano_id": "recording_2025-06-19_06-21-49_00362", "longitude": 4.9046327550058484, "latitude": 52.366651627417234, "timestamp": "2025-06-19T06:29:37Z", "year": 2025, "month": 6, "heading": 0.0, "image_url": "https://t1.data.amsterdam.nl/panorama/2025/360geo/recording_2025-06-19_06-21-49_00362/equirectangular/panorama_4000.jpg", "image_id": "AMS030_B", "greenery": "medium", "pedestrian": "strong", "cycling": "present", "motor_vehicle": "medium", "cycling_evidence": "There is a clearly marked, dedicated cycling lane on the right side of the street, separated from both the sidewalk and the motor vehicle lanes by curbs and different pavement colors.", "filename": "AMS030_B.jpg" }, "geometry": { "type": "Point", "coordinates": [ 4.904632756247575, 52.366651631555541 ] } },
{ "type": "Feature", "properties": { "location_id": "AMS031", "grid_id": "G043", "pano_id": "recording_2025-06-20_08-09-45_03245", "longitude": 4.926241074515012, "latitude": 52.353271222637787, "timestamp": "2025-06-20T08:55:16Z", "year": 2025, "month": 6, "heading": 0.0, "image_url": "https://t1.data.amsterdam.nl/panorama/2025/360geo/recording_2025-06-20_08-09-45_03245/equirectangular/panorama_4000.jpg", "image_id": "AMS031_A", "greenery": "medium", "pedestrian": "strong", "cycling": "absent", "motor_vehicle": "medium", "cycling_evidence": "There is a designated bicycle parking area with many bicycles clustered together, but no clearly marked cycle lane or track on the road itself.", "filename": "AMS031_A.jpg" }, "geometry": { "type": "Point", "coordinates": [ 4.92624107577769, 52.353271226768143 ] } },
{ "type": "Feature", "properties": { "location_id": "AMS031", "grid_id": "G043", "pano_id": "recording_2025-06-20_08-09-45_03245", "longitude": 4.926241074515012, "latitude": 52.353271222637787, "timestamp": "2025-06-20T08:55:16Z", "year": 2025, "month": 6, "heading": 0.0, "image_url": "https://t1.data.amsterdam.nl/panorama/2025/360geo/recording_2025-06-20_08-09-45_03245/equirectangular/panorama_4000.jpg", "image_id": "AMS031_B", "greenery": "medium", "pedestrian": "strong", "cycling": "absent", "motor_vehicle": "medium", "cycling_evidence": "There is a cluster of parked bicycles on the sidewalk, but no clearly marked or designated cycle lane or track is visible on the street or sidewalk.", "filename": "AMS031_B.jpg" }, "geometry": { "type": "Point", "coordinates": [ 4.92624107577769, 52.353271226768143 ] } },
{ "type": "Feature", "properties": { "location_id": "AMS032", "grid_id": "G205", "pano_id": "recording_2025-06-19_07-14-50_00611", "longitude": 4.919216799905886, "latitude": 52.367981914149745, "timestamp": "2025-06-19T07:33:04Z", "year": 2025, "month": 6, "heading": 0.0, "image_url": "https://t1.data.amsterdam.nl/panorama/2025/360geo/recording_2025-06-19_07-14-50_00611/equirectangular/panorama_4000.jpg", "image_id": "AMS032_A", "greenery": "medium", "pedestrian": "moderate", "cycling": "present", "motor_vehicle": "medium", "cycling_evidence": "There is a red and white striped barrier and a red bike lane marking on the right side of the street, indicating a designated cycling lane.", "filename": "AMS032_A.jpg" }, "geometry": { "type": "Point", "coordinates": [ 4.919216801162242, 52.367981918288848 ] } },
{ "type": "Feature", "properties": { "location_id": "AMS032", "grid_id": "G205", "pano_id": "recording_2025-06-19_07-14-50_00611", "longitude": 4.919216799905886, "latitude": 52.367981914149745, "timestamp": "2025-06-19T07:33:04Z", "year": 2025, "month": 6, "heading": 0.0, "image_url": "https://t1.data.amsterdam.nl/panorama/2025/360geo/recording_2025-06-19_07-14-50_00611/equirectangular/panorama_4000.jpg", "image_id": "AMS032_B", "greenery": "medium", "pedestrian": "weak", "cycling": "absent", "motor_vehicle": "medium", "cycling_evidence": "No clearly identifiable designated cycle lane, track, or cycling facility is visible in the image.", "filename": "AMS032_B.jpg" }, "geometry": { "type": "Point", "coordinates": [ 4.919216801162242, 52.367981918288848 ] } },
{ "type": "Feature", "properties": { "location_id": "AMS033", "grid_id": "G025", "pano_id": "recording_2025-06-20_08-09-45_04574", "longitude": 4.920284071555681, "latitude": 52.351903877028711, "timestamp": "2025-06-20T09:19:15Z", "year": 2025, "month": 6, "heading": 0.0, "image_url": "https://t1.data.amsterdam.nl/panorama/2025/360geo/recording_2025-06-20_08-09-45_04574/equirectangular/panorama_4000.jpg", "image_id": "AMS033_A", "greenery": "medium", "pedestrian": "moderate", "cycling": "absent", "motor_vehicle": "medium", "cycling_evidence": "There is no clearly marked or designated cycling lane or track visible on the street or sidewalk.", "filename": "AMS033_A.jpg" }, "geometry": { "type": "Point", "coordinates": [ 4.920284072812343, 52.351903881158293 ] } },
{ "type": "Feature", "properties": { "location_id": "AMS033", "grid_id": "G025", "pano_id": "recording_2025-06-20_08-09-45_04574", "longitude": 4.920284071555681, "latitude": 52.351903877028711, "timestamp": "2025-06-20T09:19:15Z", "year": 2025, "month": 6, "heading": 0.0, "image_url": "https://t1.data.amsterdam.nl/panorama/2025/360geo/recording_2025-06-20_08-09-45_04574/equirectangular/panorama_4000.jpg", "image_id": "AMS033_B", "greenery": "medium", "pedestrian": "strong", "cycling": "absent", "motor_vehicle": "medium", "cycling_evidence": "There is no visible designated cycle lane or track on the street; the street appears to be used by parked cars and motor vehicles only.", "filename": "AMS033_B.jpg" }, "geometry": { "type": "Point", "coordinates": [ 4.920284072812343, 52.351903881158293 ] } },
{ "type": "Feature", "properties": { "location_id": "AMS034", "grid_id": "G021", "pano_id": "recording_2025-06-20_10-43-25_00993", "longitude": 4.9112028080979053, "latitude": 52.351935617943163, "timestamp": "2025-06-20T11:08:00Z", "year": 2025, "month": 6, "heading": 0.0, "image_url": "https://t1.data.amsterdam.nl/panorama/2025/360geo/recording_2025-06-20_10-43-25_00993/equirectangular/panorama_4000.jpg", "image_id": "AMS034_A", "greenery": "medium", "pedestrian": "strong", "cycling": "present", "motor_vehicle": "medium", "cycling_evidence": "There is a designated cycling lane visible on the left side of the street, separated from the car parking and driving lane by a different pavement color and markings.", "filename": "AMS034_A.jpg" }, "geometry": { "type": "Point", "coordinates": [ 4.911202809345497, 52.351935622072794 ] } },
{ "type": "Feature", "properties": { "location_id": "AMS034", "grid_id": "G021", "pano_id": "recording_2025-06-20_10-43-25_00993", "longitude": 4.9112028080979053, "latitude": 52.351935617943163, "timestamp": "2025-06-20T11:08:00Z", "year": 2025, "month": 6, "heading": 0.0, "image_url": "https://t1.data.amsterdam.nl/panorama/2025/360geo/recording_2025-06-20_10-43-25_00993/equirectangular/panorama_4000.jpg", "image_id": "AMS034_B", "greenery": "high", "pedestrian": "moderate", "cycling": "absent", "motor_vehicle": "medium", "cycling_evidence": "There is no visible designated cycle lane or track on the street; the road is occupied by parked cars and motor vehicles, and no cycling infrastructure markings or physical separations are evident.", "filename": "AMS034_B.jpg" }, "geometry": { "type": "Point", "coordinates": [ 4.911202809345497, 52.351935622072794 ] } },
{ "type": "Feature", "properties": { "location_id": "AMS035", "grid_id": "G084", "pano_id": "recording_2025-06-20_10-16-42_00351", "longitude": 4.9181938634249054, "latitude": 52.356881438444795, "timestamp": "2025-06-20T10:24:02Z", "year": 2025, "month": 6, "heading": 0.0, "image_url": "https://t1.data.amsterdam.nl/panorama/2025/360geo/recording_2025-06-20_10-16-42_00351/equirectangular/panorama_4000.jpg", "image_id": "AMS035_A", "greenery": "medium", "pedestrian": "strong", "cycling": "absent", "motor_vehicle": "medium", "cycling_evidence": "There are many bicycles parked along the right side of the street, but no clearly marked or separated cycle lane or track is visible on the roadway or sidewalk.", "filename": "AMS035_A.jpg" }, "geometry": { "type": "Point", "coordinates": [ 4.918193864679713, 52.356881442577325 ] } },
{ "type": "Feature", "properties": { "location_id": "AMS035", "grid_id": "G084", "pano_id": "recording_2025-06-20_10-16-42_00351", "longitude": 4.9181938634249054, "latitude": 52.356881438444795, "timestamp": "2025-06-20T10:24:02Z", "year": 2025, "month": 6, "heading": 0.0, "image_url": "https://t1.data.amsterdam.nl/panorama/2025/360geo/recording_2025-06-20_10-16-42_00351/equirectangular/panorama_4000.jpg", "image_id": "AMS035_B", "greenery": "medium", "pedestrian": "strong", "cycling": "absent", "motor_vehicle": "medium", "cycling_evidence": "There is a designated bike parking area with multiple bicycles parked on the left side of the sidewalk, but no clearly marked or separated cycle lane is visible on the street itself.", "filename": "AMS035_B.jpg" }, "geometry": { "type": "Point", "coordinates": [ 4.918193864679713, 52.356881442577325 ] } },
{ "type": "Feature", "properties": { "location_id": "AMS036", "grid_id": "G111", "pano_id": "recording_2025-06-20_10-43-25_02082", "longitude": 4.9119360548038493, "latitude": 52.359159080930986, "timestamp": "2025-06-20T11:32:56Z", "year": 2025, "month": 6, "heading": 0.0, "image_url": "https://t1.data.amsterdam.nl/panorama/2025/360geo/recording_2025-06-20_10-43-25_02082/equirectangular/panorama_4000.jpg", "image_id": "AMS036_A", "greenery": "medium", "pedestrian": "moderate", "cycling": "absent", "motor_vehicle": "high", "cycling_evidence": "No designated cycle lane, track, or other cycling facility is visible on the street. The street is occupied by parked cars on both sides, and no cycling markings or infrastructure are apparent.", "filename": "AMS036_A.jpg" }, "geometry": { "type": "Point", "coordinates": [ 4.911936056052516, 52.359159085064888 ] } },
{ "type": "Feature", "properties": { "location_id": "AMS036", "grid_id": "G111", "pano_id": "recording_2025-06-20_10-43-25_02082", "longitude": 4.9119360548038493, "latitude": 52.359159080930986, "timestamp": "2025-06-20T11:32:56Z", "year": 2025, "month": 6, "heading": 0.0, "image_url": "https://t1.data.amsterdam.nl/panorama/2025/360geo/recording_2025-06-20_10-43-25_02082/equirectangular/panorama_4000.jpg", "image_id": "AMS036_B", "greenery": "medium", "pedestrian": "moderate", "cycling": "present", "motor_vehicle": "medium", "cycling_evidence": "There are multiple parked bicycles and a marked cycle lane on the left side of the street, indicating designated cycling infrastructure.", "filename": "AMS036_B.jpg" }, "geometry": { "type": "Point", "coordinates": [ 4.911936056052516, 52.359159085064888 ] } },
{ "type": "Feature", "properties": { "location_id": "AMS037", "grid_id": "G082", "pano_id": "recording_2025-06-20_10-43-25_00164", "longitude": 4.913303871282392, "latitude": 52.356124152076404, "timestamp": "2025-06-20T10:48:18Z", "year": 2025, "month": 6, "heading": 0.0, "image_url": "https://t1.data.amsterdam.nl/panorama/2025/360geo/recording_2025-06-20_10-43-25_00164/equirectangular/panorama_4000.jpg", "image_id": "AMS037_A", "greenery": "medium", "pedestrian": "moderate", "cycling": "absent", "motor_vehicle": "medium", "cycling_evidence": "There is no visible designated cycle lane or track on the street. Bicycles are parked near the sidewalk but no cycling infrastructure is evident.", "filename": "AMS037_A.jpg" }, "geometry": { "type": "Point", "coordinates": [ 4.913303872532281, 52.356124156208502 ] } },
{ "type": "Feature", "properties": { "location_id": "AMS037", "grid_id": "G082", "pano_id": "recording_2025-06-20_10-43-25_00164", "longitude": 4.913303871282392, "latitude": 52.356124152076404, "timestamp": "2025-06-20T10:48:18Z", "year": 2025, "month": 6, "heading": 0.0, "image_url": "https://t1.data.amsterdam.nl/panorama/2025/360geo/recording_2025-06-20_10-43-25_00164/equirectangular/panorama_4000.jpg", "image_id": "AMS037_B", "greenery": "medium", "pedestrian": "strong", "cycling": "absent", "motor_vehicle": "medium", "cycling_evidence": "There is a long row of parked bicycles on the right side of the street, but no clearly marked or designated cycle lane or track is visible on the street itself.", "filename": "AMS037_B.jpg" }, "geometry": { "type": "Point", "coordinates": [ 4.913303872532281, 52.356124156208502 ] } },
{ "type": "Feature", "properties": { "location_id": "AMS038", "grid_id": "G165", "pano_id": "recording_2025-09-26_12-26-58_00378", "longitude": 4.9304042117737819, "latitude": 52.36327321444444, "timestamp": "2025-09-26T12:34:45Z", "year": 2025, "month": 9, "heading": 0.0, "image_url": "https://t1.data.amsterdam.nl/panorama/2025/360geo/recording_2025-09-26_12-26-58_00378/equirectangular/panorama_4000.jpg", "image_id": "AMS038_A", "greenery": "medium", "pedestrian": "moderate", "cycling": "unclear", "motor_vehicle": "medium", "cycling_evidence": "There is a blue circular sign indicating a cycling path, and a cyclist is present, but the actual designated cycling lane or track is not clearly visible due to construction barriers and equipment blocking the view.", "filename": "AMS038_A.jpg" }, "geometry": { "type": "Point", "coordinates": [ 4.930404213041093, 52.363273218580716 ] } },
{ "type": "Feature", "properties": { "location_id": "AMS038", "grid_id": "G165", "pano_id": "recording_2025-09-26_12-26-58_00378", "longitude": 4.9304042117737819, "latitude": 52.36327321444444, "timestamp": "2025-09-26T12:34:45Z", "year": 2025, "month": 9, "heading": 0.0, "image_url": "https://t1.data.amsterdam.nl/panorama/2025/360geo/recording_2025-09-26_12-26-58_00378/equirectangular/panorama_4000.jpg", "image_id": "AMS038_B", "greenery": "medium", "pedestrian": "moderate", "cycling": "present", "motor_vehicle": "medium", "cycling_evidence": "There is a marked cycle lane on the right side of the street, indicated by painted bicycle symbols and lane markings, clearly designating space for cyclists.", "filename": "AMS038_B.jpg" }, "geometry": { "type": "Point", "coordinates": [ 4.930404213041093, 52.363273218580716 ] } },
{ "type": "Feature", "properties": { "location_id": "AMS039", "grid_id": "G120", "pano_id": "recording_2025-09-26_11-26-54_00040", "longitude": 4.9314010051720718, "latitude": 52.359956853464062, "timestamp": "2025-09-26T11:28:07Z", "year": 2025, "month": 9, "heading": 0.0, "image_url": "https://t1.data.amsterdam.nl/panorama/2025/360geo/recording_2025-09-26_11-26-54_00040/equirectangular/panorama_4000.jpg", "image_id": "AMS039_A", "greenery": "medium", "pedestrian": "moderate", "cycling": "present", "motor_vehicle": "medium", "cycling_evidence": "There is a dedicated cycling path visible in the center of the image, marked by a blue cycling sign and a distinct reddish pavement separate from the vehicle area.", "filename": "AMS039_A.jpg" }, "geometry": { "type": "Point", "coordinates": [ 4.93140100644022, 52.35995685759837 ] } },
{ "type": "Feature", "properties": { "location_id": "AMS039", "grid_id": "G120", "pano_id": "recording_2025-09-26_11-26-54_00040", "longitude": 4.9314010051720718, "latitude": 52.359956853464062, "timestamp": "2025-09-26T11:28:07Z", "year": 2025, "month": 9, "heading": 0.0, "image_url": "https://t1.data.amsterdam.nl/panorama/2025/360geo/recording_2025-09-26_11-26-54_00040/equirectangular/panorama_4000.jpg", "image_id": "AMS039_B", "greenery": "high", "pedestrian": "strong", "cycling": "unclear", "motor_vehicle": "medium", "cycling_evidence": "The road surface is reddish, which is often used to indicate a cycle lane or shared cycling space in some urban designs, and there is a person with a bicycle on the sidewalk, but no clearly marked or separated cycle lane is visible.", "filename": "AMS039_B.jpg" }, "geometry": { "type": "Point", "coordinates": [ 4.93140100644022, 52.35995685759837 ] } },
{ "type": "Feature", "properties": { "location_id": "AMS040", "grid_id": "G153", "pano_id": "recording_2025-06-19_04-38-42_00491", "longitude": 4.9035692824496593, "latitude": 52.363131751597166, "timestamp": "2025-06-19T04:53:35Z", "year": 2025, "month": 6, "heading": 0.0, "image_url": "https://t1.data.amsterdam.nl/panorama/2025/360geo/recording_2025-06-19_04-38-42_00491/equirectangular/panorama_4000.jpg", "image_id": "AMS040_A", "greenery": "medium", "pedestrian": "strong", "cycling": "absent", "motor_vehicle": "medium", "cycling_evidence": "There are bicycles parked along the street, but no clearly marked or designated cycling lane or track is visible on the roadway or sidewalk.", "filename": "AMS040_A.jpg" }, "geometry": { "type": "Point", "coordinates": [ 4.903569283690157, 52.36313175573342 ] } },
{ "type": "Feature", "properties": { "location_id": "AMS040", "grid_id": "G153", "pano_id": "recording_2025-06-19_04-38-42_00491", "longitude": 4.9035692824496593, "latitude": 52.363131751597166, "timestamp": "2025-06-19T04:53:35Z", "year": 2025, "month": 6, "heading": 0.0, "image_url": "https://t1.data.amsterdam.nl/panorama/2025/360geo/recording_2025-06-19_04-38-42_00491/equirectangular/panorama_4000.jpg", "image_id": "AMS040_B", "greenery": "medium", "pedestrian": "moderate", "cycling": "absent", "motor_vehicle": "medium", "cycling_evidence": "There are bicycles parked near the railing in the background, but no clearly marked or designated cycling lane or track is visible on the street or sidewalk.", "filename": "AMS040_B.jpg" }, "geometry": { "type": "Point", "coordinates": [ 4.903569283690157, 52.36313175573342 ] } },
{ "type": "Feature", "properties": { "location_id": "AMS041", "grid_id": "G151", "pano_id": "recording_2025-07-14_06-43-08_01324", "longitude": 4.8992939709162968, "latitude": 52.363028295540211, "timestamp": "2025-07-14T07:19:47Z", "year": 2025, "month": 7, "heading": 0.0, "image_url": "https://t1.data.amsterdam.nl/panorama/2025/360geo/recording_2025-07-14_06-43-08_01324/equirectangular/panorama_4000.jpg", "image_id": "AMS041_A", "greenery": "medium", "pedestrian": "moderate", "cycling": "present", "motor_vehicle": "medium", "cycling_evidence": "There is a blue line painted on the left side of the street which is typically used to mark a cycle lane, and bicycles are parked along the right side, but no fully separated cycle track is visible.", "filename": "AMS041_A.jpg" }, "geometry": { "type": "Point", "coordinates": [ 4.899293972152517, 52.363028299676415 ] } },
{ "type": "Feature", "properties": { "location_id": "AMS041", "grid_id": "G151", "pano_id": "recording_2025-07-14_06-43-08_01324", "longitude": 4.8992939709162968, "latitude": 52.363028295540211, "timestamp": "2025-07-14T07:19:47Z", "year": 2025, "month": 7, "heading": 0.0, "image_url": "https://t1.data.amsterdam.nl/panorama/2025/360geo/recording_2025-07-14_06-43-08_01324/equirectangular/panorama_4000.jpg", "image_id": "AMS041_B", "greenery": "medium", "pedestrian": "strong", "cycling": "present", "motor_vehicle": "medium", "cycling_evidence": "There is a narrow, designated cycling lane marked by a different pavement color and a curb separating it from the pedestrian sidewalk on the right side of the street.", "filename": "AMS041_B.jpg" }, "geometry": { "type": "Point", "coordinates": [ 4.899293972152517, 52.363028299676415 ] } },
{ "type": "Feature", "properties": { "location_id": "AMS042", "grid_id": "G186", "pano_id": "recording_2025-06-19_06-21-49_01110", "longitude": 4.9118622265564316, "latitude": 52.366510124797237, "timestamp": "2025-06-19T06:50:15Z", "year": 2025, "month": 6, "heading": 0.0, "image_url": "https://t1.data.amsterdam.nl/panorama/2025/360geo/recording_2025-06-19_06-21-49_01110/equirectangular/panorama_4000.jpg", "image_id": "AMS042_A", "greenery": "medium", "pedestrian": "strong", "cycling": "present", "motor_vehicle": "medium", "cycling_evidence": "There is a designated cycling lane visible on the right side of the street, separated from the vehicle lanes by a curb and marked with cycling symbols.", "filename": "AMS042_A.jpg" }, "geometry": { "type": "Point", "coordinates": [ 4.911862227805372, 52.366510128935495 ] } },
{ "type": "Feature", "properties": { "location_id": "AMS042", "grid_id": "G186", "pano_id": "recording_2025-06-19_06-21-49_01110", "longitude": 4.9118622265564316, "latitude": 52.366510124797237, "timestamp": "2025-06-19T06:50:15Z", "year": 2025, "month": 6, "heading": 0.0, "image_url": "https://t1.data.amsterdam.nl/panorama/2025/360geo/recording_2025-06-19_06-21-49_01110/equirectangular/panorama_4000.jpg", "image_id": "AMS042_B", "greenery": "medium", "pedestrian": "strong", "cycling": "present", "motor_vehicle": "medium", "cycling_evidence": "There is a clearly marked red cycle lane on the left side of the image, separated from the tram tracks and pedestrian areas, indicating designated cycling infrastructure.", "filename": "AMS042_B.jpg" }, "geometry": { "type": "Point", "coordinates": [ 4.911862227805372, 52.366510128935495 ] } },
{ "type": "Feature", "properties": { "location_id": "AMS043", "grid_id": "G216", "pano_id": "recording_2025-06-19_06-21-49_01366", "longitude": 4.9106108145244161, "latitude": 52.368795629251956, "timestamp": "2025-06-19T06:59:42Z", "year": 2025, "month": 6, "heading": 0.0, "image_url": "https://t1.data.amsterdam.nl/panorama/2025/360geo/recording_2025-06-19_06-21-49_01366/equirectangular/panorama_4000.jpg", "image_id": "AMS043_A", "greenery": "medium", "pedestrian": "strong", "cycling": "present", "motor_vehicle": "medium", "cycling_evidence": "There is a painted bicycle lane symbol on the road and multiple bicycles parked along the sidewalk, indicating a designated cycling lane is present.", "filename": "AMS043_A.jpg" }, "geometry": { "type": "Point", "coordinates": [ 4.910610815772213, 52.368795633391528 ] } },
{ "type": "Feature", "properties": { "location_id": "AMS043", "grid_id": "G216", "pano_id": "recording_2025-06-19_06-21-49_01366", "longitude": 4.9106108145244161, "latitude": 52.368795629251956, "timestamp": "2025-06-19T06:59:42Z", "year": 2025, "month": 6, "heading": 0.0, "image_url": "https://t1.data.amsterdam.nl/panorama/2025/360geo/recording_2025-06-19_06-21-49_01366/equirectangular/panorama_4000.jpg", "image_id": "AMS043_B", "greenery": "medium", "pedestrian": "moderate", "cycling": "absent", "motor_vehicle": "medium", "cycling_evidence": "There is no clearly marked or designated cycling lane or track visible on the road. Although bicycles are parked on the sidewalk, no cycling infrastructure such as a lane or track is evident.", "filename": "AMS043_B.jpg" }, "geometry": { "type": "Point", "coordinates": [ 4.910610815772213, 52.368795633391528 ] } },
{ "type": "Feature", "properties": { "location_id": "AMS044", "grid_id": "G003", "pano_id": "recording_2025-07-14_08-27-06_01541", "longitude": 4.9050093131719237, "latitude": 52.349513626882711, "timestamp": "2025-07-14T09:08:45Z", "year": 2025, "month": 7, "heading": 0.0, "image_url": "https://t1.data.amsterdam.nl/panorama/2025/360geo/recording_2025-07-14_08-27-06_01541/equirectangular/panorama_4000.jpg", "image_id": "AMS044_A", "greenery": "medium", "pedestrian": "moderate", "cycling": "absent", "motor_vehicle": "high", "cycling_evidence": "There are bicycles parked along the sidewalk, but no clearly marked or designated cycling lane or track is visible on the street or sidewalk.", "filename": "AMS044_A.jpg" }, "geometry": { "type": "Point", "coordinates": [ 4.905009314413213, 52.349513631010907 ] } },
{ "type": "Feature", "properties": { "location_id": "AMS044", "grid_id": "G003", "pano_id": "recording_2025-07-14_08-27-06_01541", "longitude": 4.9050093131719237, "latitude": 52.349513626882711, "timestamp": "2025-07-14T09:08:45Z", "year": 2025, "month": 7, "heading": 0.0, "image_url": "https://t1.data.amsterdam.nl/panorama/2025/360geo/recording_2025-07-14_08-27-06_01541/equirectangular/panorama_4000.jpg", "image_id": "AMS044_B", "greenery": "medium", "pedestrian": "strong", "cycling": "absent", "motor_vehicle": "medium", "cycling_evidence": "There are many bicycles parked along the street and near the canal, but there is no clearly marked or designated cycle lane or track visible on the road or sidewalk.", "filename": "AMS044_B.jpg" }, "geometry": { "type": "Point", "coordinates": [ 4.905009314413213, 52.349513631010907 ] } },
{ "type": "Feature", "properties": { "location_id": "AMS045", "grid_id": "G055", "pano_id": "recording_2025-06-20_09-59-55_00626", "longitude": 4.9201315726889101, "latitude": 52.354253970864285, "timestamp": "2025-06-20T10:13:33Z", "year": 2025, "month": 6, "heading": 0.0, "image_url": "https://t1.data.amsterdam.nl/panorama/2025/360geo/recording_2025-06-20_09-59-55_00626/equirectangular/panorama_4000.jpg", "image_id": "AMS045_A", "greenery": "medium", "pedestrian": "strong", "cycling": "present", "motor_vehicle": "medium", "cycling_evidence": "A clearly marked, designated cycle lane is visible on the left side of the street, separated from the motor vehicle lanes by painted lines and road markings.", "filename": "AMS045_A.jpg" }, "geometry": { "type": "Point", "coordinates": [ 4.920131573945531, 52.354253974995252 ] } },
{ "type": "Feature", "properties": { "location_id": "AMS045", "grid_id": "G055", "pano_id": "recording_2025-06-20_09-59-55_00626", "longitude": 4.9201315726889101, "latitude": 52.354253970864285, "timestamp": "2025-06-20T10:13:33Z", "year": 2025, "month": 6, "heading": 0.0, "image_url": "https://t1.data.amsterdam.nl/panorama/2025/360geo/recording_2025-06-20_09-59-55_00626/equirectangular/panorama_4000.jpg", "image_id": "AMS045_B", "greenery": "high", "pedestrian": "strong", "cycling": "present", "motor_vehicle": "medium", "cycling_evidence": "There is a clearly marked red cycle lane with white directional arrows separated from the main vehicle lane, and a blue circular cycling sign confirming designated cycling infrastructure.", "filename": "AMS045_B.jpg" }, "geometry": { "type": "Point", "coordinates": [ 4.920131573945531, 52.354253974995252 ] } },
{ "type": "Feature", "properties": { "location_id": "AMS046", "grid_id": "G091", "pano_id": "recording_2025-09-29_09-14-27_01892", "longitude": 4.8993409767918203, "latitude": 52.357616915632995, "timestamp": "2025-09-29T10:09:19Z", "year": 2025, "month": 9, "heading": 0.0, "image_url": "https://t1.data.amsterdam.nl/panorama/2025/360geo/recording_2025-09-29_09-14-27_01892/equirectangular/panorama_4000.jpg", "image_id": "AMS046_A", "greenery": "medium", "pedestrian": "strong", "cycling": "present", "motor_vehicle": "high", "cycling_evidence": "There are red-colored bike lanes on both sides of the street adjacent to the sidewalks, clearly marked and separated from vehicle lanes.", "filename": "AMS046_A.jpg" }, "geometry": { "type": "Point", "coordinates": [ 4.899340978027832, 52.357616919766038 ] } },
{ "type": "Feature", "properties": { "location_id": "AMS046", "grid_id": "G091", "pano_id": "recording_2025-09-29_09-14-27_01892", "longitude": 4.8993409767918203, "latitude": 52.357616915632995, "timestamp": "2025-09-29T10:09:19Z", "year": 2025, "month": 9, "heading": 0.0, "image_url": "https://t1.data.amsterdam.nl/panorama/2025/360geo/recording_2025-09-29_09-14-27_01892/equirectangular/panorama_4000.jpg", "image_id": "AMS046_B", "greenery": "medium", "pedestrian": "strong", "cycling": "present", "motor_vehicle": "medium", "cycling_evidence": "There is a designated cycling lane visible on the right side of the street, separated from the sidewalk and road, with a cyclist present.", "filename": "AMS046_B.jpg" }, "geometry": { "type": "Point", "coordinates": [ 4.899340978027832, 52.357616919766038 ] } },
{ "type": "Feature", "properties": { "location_id": "AMS047", "grid_id": "G159", "pano_id": "recording_2025-06-19_10-17-35_00050", "longitude": 4.9169520130823301, "latitude": 52.36308930778663, "timestamp": "2025-06-19T10:19:28Z", "year": 2025, "month": 6, "heading": 0.0, "image_url": "https://t1.data.amsterdam.nl/panorama/2025/360geo/recording_2025-06-19_10-17-35_00050/equirectangular/panorama_4000.jpg", "image_id": "AMS047_A", "greenery": "high", "pedestrian": "moderate", "cycling": "present", "motor_vehicle": "medium", "cycling_evidence": "There is a clearly marked red cycle lane on the left side of the street, separated from the parked cars and the main road, indicating designated cycling infrastructure.", "filename": "AMS047_A.jpg" }, "geometry": { "type": "Point", "coordinates": [ 4.916952014336192, 52.363089311922849 ] } },
{ "type": "Feature", "properties": { "location_id": "AMS047", "grid_id": "G159", "pano_id": "recording_2025-06-19_10-17-35_00050", "longitude": 4.9169520130823301, "latitude": 52.36308930778663, "timestamp": "2025-06-19T10:19:28Z", "year": 2025, "month": 6, "heading": 0.0, "image_url": "https://t1.data.amsterdam.nl/panorama/2025/360geo/recording_2025-06-19_10-17-35_00050/equirectangular/panorama_4000.jpg", "image_id": "AMS047_B", "greenery": "high", "pedestrian": "moderate", "cycling": "present", "motor_vehicle": "medium", "cycling_evidence": "The reddish-brown lane adjacent to the parked cars and separated from the tram tracks appears to be a designated cycle lane, as it is distinct from the main vehicle lanes and has markings consistent with cycling infrastructure.", "filename": "AMS047_B.jpg" }, "geometry": { "type": "Point", "coordinates": [ 4.916952014336192, 52.363089311922849 ] } },
{ "type": "Feature", "properties": { "location_id": "AMS048", "grid_id": "G080", "pano_id": "recording_2025-06-20_12-01-53_00936", "longitude": 4.909791470301589, "latitude": 52.356726695722898, "timestamp": "2025-06-20T12:20:52Z", "year": 2025, "month": 6, "heading": 0.0, "image_url": "https://t1.data.amsterdam.nl/panorama/2025/360geo/recording_2025-06-20_12-01-53_00936/equirectangular/panorama_4000.jpg", "image_id": "AMS048_A", "greenery": "medium", "pedestrian": "moderate", "cycling": "absent", "motor_vehicle": "medium", "cycling_evidence": "There is no visible designated cycle lane or track on the street. Bicycles are parked on the sidewalk but no cycling infrastructure is marked on the road.", "filename": "AMS048_A.jpg" }, "geometry": { "type": "Point", "coordinates": [ 4.909791471547996, 52.356726699855351 ] } },
{ "type": "Feature", "properties": { "location_id": "AMS048", "grid_id": "G080", "pano_id": "recording_2025-06-20_12-01-53_00936", "longitude": 4.909791470301589, "latitude": 52.356726695722898, "timestamp": "2025-06-20T12:20:52Z", "year": 2025, "month": 6, "heading": 0.0, "image_url": "https://t1.data.amsterdam.nl/panorama/2025/360geo/recording_2025-06-20_12-01-53_00936/equirectangular/panorama_4000.jpg", "image_id": "AMS048_B", "greenery": "medium", "pedestrian": "moderate", "cycling": "absent", "motor_vehicle": "medium", "cycling_evidence": "There is no clearly marked or designated cycle lane or track visible on the street. However, there are many parked bicycles along the sidewalk, but no dedicated cycling infrastructure is evident.", "filename": "AMS048_B.jpg" }, "geometry": { "type": "Point", "coordinates": [ 4.909791471547996, 52.356726699855351 ] } },
{ "type": "Feature", "properties": { "location_id": "AMS049", "grid_id": "G162", "pano_id": "recording_2025-09-30_11-20-22_00038", "longitude": 4.9233670718590776, "latitude": 52.363246374636837, "timestamp": "2025-09-30T11:21:11Z", "year": 2025, "month": 9, "heading": 0.0, "image_url": "https://t1.data.amsterdam.nl/panorama/2025/360geo/recording_2025-09-30_11-20-22_00038/equirectangular/panorama_4000.jpg", "image_id": "AMS049_A", "greenery": "high", "pedestrian": "strong", "cycling": "present", "motor_vehicle": "medium", "cycling_evidence": "There is a clearly marked and separated cycle lane on the right side of the street, indicated by the blue cycling signs and the red pavement distinct from the sidewalk and road.", "filename": "AMS049_A.jpg" }, "geometry": { "type": "Point", "coordinates": [ 4.923367073119354, 52.363246378773084 ] } },
{ "type": "Feature", "properties": { "location_id": "AMS049", "grid_id": "G162", "pano_id": "recording_2025-09-30_11-20-22_00038", "longitude": 4.9233670718590776, "latitude": 52.363246374636837, "timestamp": "2025-09-30T11:21:11Z", "year": 2025, "month": 9, "heading": 0.0, "image_url": "https://t1.data.amsterdam.nl/panorama/2025/360geo/recording_2025-09-30_11-20-22_00038/equirectangular/panorama_4000.jpg", "image_id": "AMS049_B", "greenery": "medium", "pedestrian": "moderate", "cycling": "present", "motor_vehicle": "medium", "cycling_evidence": "There is a clearly marked and separated cycle lane on the left side of the street, distinguished by painted lines and symbols, indicating designated cycling infrastructure.", "filename": "AMS049_B.jpg" }, "geometry": { "type": "Point", "coordinates": [ 4.923367073119354, 52.363246378773084 ] } },
{ "type": "Feature", "properties": { "location_id": "AMS050", "grid_id": "G185", "pano_id": "recording_2025-06-19_04-38-42_02147", "longitude": 4.9082996606964322, "latitude": 52.366054759030192, "timestamp": "2025-06-19T05:25:17Z", "year": 2025, "month": 6, "heading": 0.0, "image_url": "https://t1.data.amsterdam.nl/panorama/2025/360geo/recording_2025-06-19_04-38-42_02147/equirectangular/panorama_4000.jpg", "image_id": "AMS050_A", "greenery": "high", "pedestrian": "strong", "cycling": "present", "motor_vehicle": "medium", "cycling_evidence": "There is a narrow green-painted lane on the right side of the street, which appears to be a designated cycle lane separated from the main vehicle lane by a white line.", "filename": "AMS050_A.jpg" }, "geometry": { "type": "Point", "coordinates": [ 4.908299661941792, 52.366054763168158 ] } },
{ "type": "Feature", "properties": { "location_id": "AMS050", "grid_id": "G185", "pano_id": "recording_2025-06-19_04-38-42_02147", "longitude": 4.9082996606964322, "latitude": 52.366054759030192, "timestamp": "2025-06-19T05:25:17Z", "year": 2025, "month": 6, "heading": 0.0, "image_url": "https://t1.data.amsterdam.nl/panorama/2025/360geo/recording_2025-06-19_04-38-42_02147/equirectangular/panorama_4000.jpg", "image_id": "AMS050_B", "greenery": "high", "pedestrian": "strong", "cycling": "absent", "motor_vehicle": "medium", "cycling_evidence": "There is a bicycle parked on the left side near the sidewalk, but no clearly marked or designated cycling lane or track is visible on the road or sidewalk.", "filename": "AMS050_B.jpg" }, "geometry": { "type": "Point", "coordinates": [ 4.908299661941792, 52.366054763168158 ] } }
]
}
